NORAD_CAT_ID,OBJECT_NAME,OBJECT_TYPE,EPOCH,MEAN_MOTION,ECCENTRICITY,INCLINATION,RA_OF_ASC_NODE,ARG_OF_PERICENTER,MEAN_ANOMALY,BSTAR,MEAN_MOTION_DOT,MEAN_MOTION_DDOT,TLE_LINE0,TLE_LINE1,TLE_LINE2,SEMIMAJOR_AXIS,PERIOD,APOGEE,PERIGEE,DECAYED
55410.0,STARLINK-5633,PAYLOAD,2023-04-21 06:00:00,15.65324913,0.0003366,70.0009,226.0185,264.4719,353.0278,-0.010045,-0.00913389,0.0,0 STARLINK-5633,1 55410U 23014V   23111.25001157 -.00913389  00000-0 -10045-1 0  9990,2 55410  70.0009 226.0185 0003366 264.4719 353.0278 15.65324913 13627,6750.441,91.994,374.579,370.034,0.0
55410.0,STARLINK-5633,PAYLOAD,2023-04-21 14:00:01,15.6463964,0.0003471,70.0011,225.0882,271.7354,63.1964,-0.0098779,-0.00877264,0.0,0 STARLINK-5633,1 55410U 23014V   23111.58334491 -.00877264  00000-0 -98779-2 0  9998,2 55410  70.0011 225.0882 0003471 271.7354  63.1964 15.64639640  1304,6752.412,92.034,376.621,371.934,0.0
55410.0,STARLINK-5633,PAYLOAD,2023-04-21 22:00:00,15.64034439,0.0003465,70.0005,224.1588,274.0681,137.4805,-0.011094,-0.00954158,0.0,0 STARLINK-5633,1 55410U 23014V   23111.91667824 -.00954158  00000-0 -11094-1 0  9996,2 55410  70.0005 224.1588 0003465 274.0681 137.4805 15.64034439 13736,6754.154,92.07,378.359,373.679,0.0
55410.0,STARLINK-5633,PAYLOAD,2023-04-22 00:00:02,15.63841605,0.0003296,70.0006,223.9265,271.7053,248.9548,-0.010582,-0.00907551,0.0,0 STARLINK-5633,1 55410U 23014V   23112.00002315 -.00907551  00000-0 -10582-1 0  9991,2 55410  70.0006 223.9265 0003296 271.7053 248.9548 15.63841605  1307,6754.709,92.081,378.801,374.348,0.0
55410.0,STARLINK-5633,PAYLOAD,2023-04-22 14:00:01,15.62685683,0.0003361,70.0005,222.3028,272.6059,289.8758,-0.010702,-0.0087959,0.0,0 STARLINK-5633,1 55410U 23014V   23112.58334491 -.00879590  00000-0 -10702-1 0  9992,2 55410  70.0005 222.3028 0003361 272.6059 289.8758 15.62685683 13834,6758.04,92.149,382.176,377.634,0.0
55410.0,STARLINK-5633,PAYLOAD,2023-04-22 22:00:01,15.62077344,0.0003369,70.0003,221.3761,271.3229,5.496,-0.012036,-0.00958039,0.0,0 STARLINK-5633,1 55410U 23014V   23112.91668981 -.00958039  00000-0 -12036-1 0  9991,2 55410  70.0003 221.3761 0003369 271.3229   5.4960 15.62077344  1303,6759.794,92.185,383.937,379.382,0.0
55410.0,STARLINK-5633,PAYLOAD,2023-04-23 14:00:01,15.6073331,0.0003626,70.0005,219.5259,274.0155,148.9779,-0.011712,-0.00891244,0.0,0 STARLINK-5633,1 55410U 23014V   23113.58334491 -.00891244  00000-0 -11712-1 0  9995,2 55410  70.0005 219.5259 0003626 274.0155 148.9779 15.60733310  1301,6763.675,92.264,387.992,383.087,0.0
55410.0,STARLINK-5633,PAYLOAD,2023-04-23 22:00:00,15.60118008,0.0003506,69.9999,218.6018,273.2422,221.6749,-0.012842,-0.00948543,0.0,0 STARLINK-5633,1 55410U 23014V   23113.91667824 -.00948543  00000-0 -12842-1 0  9991,2 55410  69.9999 218.6018 0003506 273.2422 221.6749 15.60118008  1305,6765.453,92.301,389.69,384.946,0.0
55410.0,STARLINK-5633,PAYLOAD,2023-04-24 06:00:00,15.59457504,0.0003556,70.0,217.6786,265.9394,300.1313,-0.0127,-0.00917651,0.0,0 STARLINK-5633,1 55410U 23014V   23114.25001157 -.00917651  00000-0 -12700-1 0  9999,2 55410  70.0000 217.6786 0003556 265.9394 300.1313 15.59457504 14098,6767.363,92.34,391.635,386.822,0.0
55410.0,STARLINK-5633,PAYLOAD,2023-04-24 14:00:01,15.58767486,0.0003651,70.0,216.7564,271.9955,4.467,-0.012311,-0.00870822,0.0,0 STARLINK-5633,1 55410U 23014V   23114.58334491 -.00870822  00000-0 -12311-1 0  9991,2 55410  70.0000 216.7564 0003651 271.9955   4.4670 15.58767486  1300,6769.36,92.381,393.697,388.754,0.0
55410.0,STARLINK-5633,PAYLOAD,2023-04-25 14:00:01,15.56803758,0.0003446,69.9994,213.9955,274.6996,208.2593,-0.013062,-0.00859065,0.0,0 STARLINK-5633,1 55410U 23014V   23115.58335648 -.00859065  00000-0 -13062-1 0  9997,2 55410  69.9994 213.9955 0003446 274.6996 208.2593 15.56803758  1308,6775.051,92.497,399.251,394.582,0.0
55410.0,STARLINK-5633,PAYLOAD,2023-04-26 14:00:01,15.54849584,0.0003375,69.9995,211.2425,269.6877,52.5944,-0.014075,-0.00860776,0.0,0 STARLINK-5633,1 55410U 23014V   23116.58334491 -.00860776  00000-0 -14075-1 0  9999,2 55410  69.9995 211.2425 0003375 269.6877  52.5944 15.54849584  1300,6780.727,92.613,404.88,400.303,0.0
55410.0,STARLINK-5633,PAYLOAD,2023-04-27 00:00:00,15.54030431,0.0003218,69.9992,210.0976,268.8815,224.4032,-0.014493,-0.008601,0.0,0 STARLINK-5633,1 55410U 23014V   23117.00001157 -.00860100  00000-0 -14493-1 0  9992,2 55410  69.9992 210.0976 0003218 268.8815 224.4032 15.54030431  1305,6783.11,92.662,407.157,402.792,0.0
55410.0,STARLINK-5633,PAYLOAD,2023-04-27 06:00:02,15.5360158,0.00033,69.9994,209.4116,268.493,182.8455,-0.016285,-0.00942966,0.0,0 STARLINK-5633,1 55410U 23014V   23117.25002315 -.00942966  00000-0 -16285-1 0  9998,2 55410  69.9994 209.4116 0003300 268.4930 182.8455 15.53601580 14567,6784.358,92.688,408.462,403.984,0.0
55410.0,STARLINK-5633,PAYLOAD,2023-04-27 14:00:01,15.52896534,0.0003169,69.9991,208.4976,275.871,238.8211,-0.01519,-0.00864551,0.0,0 STARLINK-5633,1 55410U 23014V   23117.58335648 -.00864551  00000-0 -15190-1 0  9999,2 55410  69.9991 208.4976 0003169 275.8710 238.8211 15.52896534  1302,6786.411,92.73,410.427,406.125,0.0
55410.0,STARLINK-5633,PAYLOAD,2023-04-28 06:00:02,15.51470201,0.0003341,69.9997,206.6723,266.4148,12.6075,-0.0061053,-0.00346592,0.0,0 STARLINK-5633,1 55410U 23014V   23118.25002315 -.00346592  00000-0 -61053-2 0  9996,2 55410  69.9997 206.6723 0003341 266.4148  12.6075 15.51470201 14714,6790.57,92.815,414.703,410.166,0.0
55410.0,STARLINK-5633,PAYLOAD,2023-04-28 14:00:01,15.51196168,0.0003432,69.9995,205.761,273.2657,66.7474,0.00067037,0.00039369,0.0,0 STARLINK-5633,1 55410U 23014V   23118.58334491  .00039369  00000-0  67037-3 0  9993,2 55410  69.9995 205.7610 0003432 273.2657  66.7474 15.51196168 14775,6791.369,92.832,415.565,410.904,0.0
55410.0,STARLINK-5633,PAYLOAD,2023-04-29 06:00:00,15.51244621,0.0003481,69.9997,203.938,267.2653,194.5435,-0.00034398,-0.00020333,0.0,0 STARLINK-5633,1 55410U 23014V   23119.25001157 -.00020333  00000-0 -34398-3 0  9995,2 55410  69.9997 203.9380 0003481 267.2653 194.5435 15.51244621 14870,6791.228,92.829,415.457,410.729,0.0
55410.0,STARLINK-5633,PAYLOAD,2023-04-29 14:00:01,15.51200788,0.0003491,69.9998,203.0266,274.2849,248.5243,0.00070654,0.00041521,0.0,0 STARLINK-5633,1 55410U 23014V   23119.58335648  .00041521  00000-0  70654-3 0  9991,2 55410  69.9998 203.0266 0003491 274.2849 248.5243 15.51200788  1308,6791.356,92.831,415.592,410.85,0.0
55410.0,STARLINK-5633,PAYLOAD,2023-04-30 06:00:00,15.51247605,0.0003489,70.0,201.204,267.4995,17.0519,-0.00033295,-0.0001969,0.0,0 STARLINK-5633,1 55410U 23014V   23120.25001157 -.00019690  00000-0 -33295-3 0  9996,2 55410  70.0000 201.2040 0003489 267.4995  17.0519 15.51247605 15026,6791.219,92.829,415.454,410.715,0.0
55410.0,STARLINK-5633,PAYLOAD,2023-04-30 14:00:01,15.51194351,0.000343,69.9998,200.2927,275.5239,69.9641,0.00087198,0.00051333,0.0,0 STARLINK-5633,1 55410U 23014V   23120.58334491  .00051333  00000-0  87198-3 0  9991,2 55410  69.9998 200.2927 0003430 275.5239  69.9641 15.51194351  1306,6791.375,92.832,415.569,410.91,0.0
55410.0,STARLINK-5633,PAYLOAD,2023-05-01 08:38:04,15.51208105,0.000325,69.9973,198.1701,274.1923,85.8891,6.3114e-05,3.542e-05,0.0,0 STARLINK-5633,1 55410U 23014V   23121.35977824  .00003542  00000-0  63114-4 0  9992,2 55410  69.9973 198.1701 0003250 274.1923  85.8891 15.51208105 15200,6791.335,92.831,415.407,410.992,0.0
55410.0,STARLINK-5633,PAYLOAD,2023-05-01 13:16:39,15.51215916,0.0003225,69.9973,197.6412,273.3981,86.6836,4.2401e-05,2.326e-05,0.0,0 STARLINK-5633,1 55410U 23014V   23121.55323079  .00002326  00000-0  42401-4 0  9996,2 55410  69.9973 197.6412 0003225 273.3981  86.6836 15.51215916 15239,6791.312,92.83,415.367,410.987,0.0
55410.0,STARLINK-5633,PAYLOAD,2023-05-01 14:49:30,15.51209799,0.0003188,69.9973,197.4649,274.0371,86.0451,6.981e-05,3.936e-05,0.0,0 STARLINK-5633,1 55410U 23014V   23121.61771653  .00003936  00000-0  69810-4 0  9999,2 55410  69.9973 197.4649 0003188 274.0371  86.0451 15.51209799 15248,6791.33,92.831,415.36,411.03,0.0
55410.0,STARLINK-5633,PAYLOAD,2023-05-02 04:45:13,15.51225785,0.0003438,69.9971,195.8782,270.5245,89.5547,1.4789e-05,7.04e-06,0.0,0 STARLINK-5633,1 55410U 23014V   23122.19807099  .00000704  00000-0  14789-4 0  9992,2 55410  69.9971 195.8782 0003438 270.5245  89.5547 15.51225785 15332,6791.283,92.83,415.483,410.813,0.0
55410.0,STARLINK-5633,PAYLOAD,2023-05-02 12:29:30,15.51225428,0.0003247,69.9969,194.9966,268.2893,91.7922,1.8173e-05,9.03e-06,0.0,0 STARLINK-5633,1 55410U 23014V   23122.52049301  .00000903  00000-0  18173-4 0  9995,2 55410  69.9969 194.9966 0003247 268.2893  91.7922 15.51225428 15385,6791.284,92.83,415.354,410.944,0.0
55410.0,STARLINK-5633,PAYLOAD,2023-05-02 15:35:13,15.51224878,0.0003385,69.997,194.6443,270.4457,89.6342,1.3236e-05,6.13e-06,0.0,0 STARLINK-5633,1 55410U 23014V   23122.64946278  .00000613  00000-0  13236-4 0  9990,2 55410  69.9970 194.6443 0003385 270.4457  89.6342 15.51224878 15401,6791.286,92.83,415.45,410.852,0.0
55410.0,STARLINK-5633,PAYLOAD,2023-05-03 08:36:43,15.51178539,0.000337,69.9992,192.705,268.8044,91.2756,-8.2232e-05,-4.984e-05,0.0,0 STARLINK-5633,1 55410U 23014V   23123.35883134 -.00004984  00000-0 -82232-4 0  9999,2 55410  69.9992 192.7050 0003370 268.8044  91.2756 15.51178539 15517,6791.421,92.833,415.575,410.997,0.0
55410.0,STARLINK-5633,PAYLOAD,2023-05-03 13:15:34,15.50986807,0.000307,69.9989,192.1782,269.3583,90.7251,-0.00069676,-0.00040539,0.0,0 STARLINK-5633,1 55410U 23014V   23123.55248594 -.00040539  00000-0 -69676-3 0  9998,2 55410  69.9989 192.1782 0003070 269.3583  90.7251 15.50986807 15541,6791.981,92.844,415.931,411.76,0.0
55410.0,STARLINK-5633,PAYLOAD,2023-05-03 17:54:30,15.50716718,0.0003341,69.9975,191.6484,276.1812,83.8994,-0.0011046,-0.00063382,0.0,0 STARLINK-5633,1 55410U 23014V   23123.74618709 -.00063382  00000-0 -11046-2 0  9996,2 55410  69.9975 191.6484 0003341 276.1812  83.8994 15.50716718 15573,6792.769,92.86,416.904,412.365,0.0
